TEVEL2-8                
1 63239U 25052AF  26068.66815442  .00019130  00000+0  69304-3 0  9993
2 63239  97.4055 324.2923 0008031 124.9191 235.2804 15.28392908 54807
STARLINK-35385          
1 65906U 25224AA  26068.21908498  .00031293  00000+0  10648-2 0  9992
2 65906  53.1605  13.4269 0000906 116.6777 243.4317 15.30183882 24787
